CAS-2T & KS-1Q          
1 41847U 16066G   21040.39123347  .00000074  00000-0  22281-4 0  9992
2 41847  98.6211  98.8767 0364505 242.4660 113.9051 14.38143884223477
NAYIF-1 (EO-88)         
1 42017U 17008BX  21040.45474187  .00001833  00000-0  70873-4 0  9991
2 42017  97.3328 110.3064 0005768 187.0313 173.0847 15.27475934221712
ZHUHAI-1 02 (CAS-4B)    
1 42759U 17034B   21040.57838197  .00000269  00000-0  29636-4 0  9994
2 42759  43.0166 164.0190 0008227  79.3516  31.1959 15.10064515201818
ZHUHAI-1 01 (CAS-4A)    
1 42761U 17034D   21040.57635821  .00000273  00000-0  29792-4 0  9994
2 42761  43.0171 163.1715 0008734  79.9919  30.6436 15.10145426201811
MAX VALIER SAT          
1 42778U 17036P   21040.41613526  .00000951  00000-0  43049-4 0  9999
2 42778  97.2744  93.1255 0010316 266.8524  93.1533 15.23197600201799
RADFXSAT (FOX-1B)       
1 43017U 17073E   21040.30108912  .00000954  00000-0  78972-4 0  9999
2 43017  97.7164 309.3206 0255866 358.7230   1.3298 14.79304364174178
FOX-1D (AO-92)          
1 43137U 18004AC  21040.45029164  .00001150  00000-0  49269-4 0  9990
2 43137  97.4207 115.7499 0007543 308.5985  51.4577 15.24787900171159
DIWATA-2B               
1 43678U 18084H   21040.60387845 -.00000124  00000-0 -66238-5 0  9996
2 43678  97.9052 165.3791 0011398 110.4762 249.7658 14.91704580124374
ES'HAIL 2               
1 43700U 18090A   21040.51177722  .00000129  00000-0  00000-0 0  9993
2 43700   0.0069 115.8313 0002097 249.8647 344.1415  1.00272848  8081
FOX-1CLIFF (AO-95)      
1 43770U 18099N   21040.43289274  .00000089  00000-0  13264-4 0  9991
2 43770  97.6806 113.3686 0015831 122.8401 237.4346 14.95192454119322
ITASAT 1                
1 43786U 18099AE  21040.51180712 -.00000174  00000-0 -10554-4 0  9990
2 43786  97.6821 114.0348 0016473 116.7242 243.5668 14.95503047119360
JY1SAT (JO-97)          
1 43803U 18099AX  21040.42868558  .00000318  00000-0  33609-4 0  9995
2 43803  97.6785 113.7228 0016554 116.7614 243.5303 14.95723617119357
UWE-4                   
1 43880U 18111E   21040.49804784  .00000896  00000-0  83433-4 0  9994
2 43880  97.6955 310.3690 0012509 164.6473 195.5130 14.96722583115947
PSAT2 (NO-104)          
1 44354U 19036R   21040.28969602  .00009180  00000-0  12425-3 0  9993
2 44354  28.5292 259.1137 0341434 330.4103  27.7562 15.09349678 89560
BRICSAT2 (NO-103)       
1 44355U 19036S   21039.91838597  .00020474  00000-0  24939-3 0  9992
2 44355  28.5260 234.3863 0298497  10.6713 350.0049 15.20511649 89789
JAISAT-1                
1 44419U 19038F   21040.44996449  .00001271  00000-0  74614-4 0  9996
2 44419  97.5719   5.7944 0022304  37.2397 323.0376 15.13362657 88439
DUCHIFAT-3              
1 44854U 19089C   21040.53610759  .00000627  00000-0  56718-4 0  9991
2 44854  36.9656 137.0109 0007193 190.0136 170.0466 14.99322775 63892
RS-44 & BREEZE-KM R/B   
1 44909U 19096E   21040.40827447  .00000013  00000-0  60324-5 0  9998
2 44909  82.5216 197.8714 0217871  32.7420 328.6970 12.79708510 52465
ORBITAL FACTORY 2 (OF-2)
1 45113U 19071C   21040.43434305  .00002277  00000-0  77658-4 0  9990
2 45113  51.6431 297.7647 0012326 187.6906 172.3889 15.34750539 57506
HUSKYSAT-1              
1 45119U 19071J   21040.32093871  .00002506  00000-0  84079-4 0  9993
2 45119  51.6424 297.7561 0011751 183.6259 176.4641 15.34855919 57483
BY70-2                  
1 45857U 20042B   21040.45700112  .00001012  00000-0  15196-3 0  9993
2 45857  97.9946 117.5190 0009720 261.4597  98.5517 14.76674901 32657
SALSAT                  
1 46495U 20068K   21040.60441291 -.00000012  00000-0  36956-5 0  9996
2 46495  97.6836 338.9551 0018233 139.0727 221.1870 15.03344434 20126
BY70-3                  
1 46839U 20079N   21040.53553856  .00002406  00000-0  78402-4 0  9992
2 46839  97.2548 116.9314 0005878 315.1963 159.9499 15.32779176 14603
OSCAR 7 (AO-7)          
1 07530U 74089B   21040.42451329 -.00000040  00000-0  33645-4 0  9990
2 07530 101.8376  15.1475 0011957 268.6075 220.9805 12.53647303115684
